STARLINK-4622           
1 53648U 22105A   26068.64497258 -.00000436  00000+0 -29421-4 0  9999
2 53648  97.6028 310.1571 0000971 127.6572 232.4741 15.01261325193232
ICEYE-X39               
1 60546U 24149CG  26068.72048823  .00003515  00000+0  29320-3 0  9999
2 60546  97.6853 147.0953 0005274  52.5538 307.6164 14.99225125 85219
