[{"OBJECT_NAME":"STARLINK-4622","OBJECT_ID":"2022-105A","EPOCH":"2026-03-09T15:28:45.630912","MEAN_MOTION":15.01261325,"ECCENTRICITY":9.71e-5,"INCLINATION":97.6028,"RA_OF_ASC_NODE":310.1571,"ARG_OF_PERICENTER":127.6572,"MEAN_ANOMALY":232.4741,"EPHEMERIS_TYPE":0,"CLASSIFICATION_TYPE":"U","NORAD_CAT_ID":53648,"ELEMENT_SET_NO":999,"REV_AT_EPOCH":19323,"BSTAR":-2.9421e-5,"MEAN_MOTION_DOT":-4.36e-6,"MEAN_MOTION_DDOT":0},{"OBJECT_NAME":"ICEYE-X39","OBJECT_ID":"2024-149CG","EPOCH":"2026-03-09T17:17:30.183072","MEAN_MOTION":14.99225125,"ECCENTRICITY":0.0005274,"INCLINATION":97.6853,"RA_OF_ASC_NODE":147.0953,"ARG_OF_PERICENTER":52.5538,"MEAN_ANOMALY":307.6164,"EPHEMERIS_TYPE":0,"CLASSIFICATION_TYPE":"U","NORAD_CAT_ID":60546,"ELEMENT_SET_NO":999,"REV_AT_EPOCH":8521,"BSTAR":0.00029320082,"MEAN_MOTION_DOT":3.515e-5,"MEAN_MOTION_DDOT":0}]
